start=new Date('2023-04-06T00:00:00.000Z').valueOf();
sats=[{"BSTAR":"-0.00000810770000","CLASSIFICATION_TYPE":"U","OBJECT_ID":"2021-082M","ELEMENT_SET_NO":"999","LAUNCH_DATE":"2021-09-14","EPOCH":"2023-04-05T17:58:46.323264","GP_ID":"229568499","RCS_SIZE":"LARGE","REF_FRAME":"TEME","OBJECT_NAME":"STARLINK-3093","SEMIMAJOR_AXIS":"6950.191","TLE_LINE2":"2 49141  69.9986 109.6485 0002856 267.4917  92.5915 14.98330702 87067","COUNTRY_CODE":"US","MEAN_MOTION":"14.98330702","CENTER_NAME":"EARTH","PERIAPSIS":"570.071","DECAY_DATE":null,"REV_AT_EPOCH":"8706","ECCENTRICITY":"0.00028560","TIME_SYSTEM":"UTC","MEAN_MOTION_DOT":"-0.00000190","APOAPSIS":"574.041","TLE_LINE1":"1 49141U 21082M   23095.74914726 -.00000190  00000-0 -81077-5 0  9991","FILE":"3881153","MEAN_MOTION_DDOT":"0.0000000000000","RA_OF_ASC_NODE":"109.6485","EPHEMERIS_TYPE":"0","OBJECT_TYPE":"PAYLOAD","SITE":"AFWTR","MEAN_ELEMENT_THEORY":"SGP4","NORAD_CAT_ID":"49141","MEAN_ANOMALY":"92.5915","INCLINATION":"69.9986","PERIOD":"96.107","ARG_OF_PERICENTER":"267.4917"},{"TIME_SYSTEM":"UTC","APOAPSIS":"573.950","MEAN_MOTION_DOT":"-0.00000222","TLE_LINE1":"1 49142U 21082N   23095.37316123 -.00000222  00000-0 -10808-4 0  9997","MEAN_MOTION_DDOT":"0.0000000000000","FILE":"3880853","EPHEMERIS_TYPE":"0","RA_OF_ASC_NODE":"70.5846","OBJECT_TYPE":"PAYLOAD","SITE":"AFWTR","MEAN_ANOMALY":"112.1590","NORAD_CAT_ID":"49142","MEAN_ELEMENT_THEORY":"SGP4","ARG_OF_PERICENTER":"247.9278","PERIOD":"96.107","INCLINATION":"70.0010","BSTAR":"-0.00001080800000","CLASSIFICATION_TYPE":"U","OBJECT_ID":"2021-082N","LAUNCH_DATE":"2021-09-14","EPOCH":"2023-04-05T08:57:21.130272","ELEMENT_SET_NO":"999","OBJECT_NAME":"STARLINK-3042","GP_ID":"229536092","RCS_SIZE":"LARGE","REF_FRAME":"TEME","SEMIMAJOR_AXIS":"6950.179","TLE_LINE2":"2 49142  70.0010  70.5846 0002742 247.9278 112.1590 14.98334568 86794","MEAN_MOTION":"14.98334568","COUNTRY_CODE":"US","CENTER_NAME":"EARTH","DECAY_DATE":null,"PERIAPSIS":"570.138","ECCENTRICITY":"0.00027420","REV_AT_EPOCH":"8679"},{"SEMIMAJOR_AXIS":"6950.188","RCS_SIZE":"LARGE","GP_ID":"229569501","REF_FRAME":"TEME","OBJECT_NAME":"STARLINK-3109","EPOCH":"2023-04-05T17:10:22.114272","LAUNCH_DATE":"2021-09-14","ELEMENT_SET_NO":"999","OBJECT_ID":"2021-082P","CLASSIFICATION_TYPE":"U","BSTAR":"0.00002355900000","REV_AT_EPOCH":"8746","ECCENTRICITY":"0.00029400","PERIAPSIS":"570.010","DECAY_DATE":null,"CENTER_NAME":"EARTH","COUNTRY_CODE":"US","MEAN_MOTION":"14.98331590","TLE_LINE2":"2 49143  69.9997  89.7243 0002940 271.9456  88.1366 14.98331590 87464","TLE_LINE1":"1 49143U 21082P   23095.71553373  .00000188  00000-0  23559-4 0  9992","MEAN_MOTION_DOT":"0.00000188","APOAPSIS":"574.096","TIME_SYSTEM":"UTC","INCLINATION":"69.9997","PERIOD":"96.107","ARG_OF_PERICENTER":"271.9456","MEAN_ELEMENT_THEORY":"SGP4","NORAD_CAT_ID":"49143","MEAN_ANOMALY":"88.1366","SITE":"AFWTR","OBJECT_TYPE":"PAYLOAD","RA_OF_ASC_NODE":"89.7243","EPHEMERIS_TYPE":"0","FILE":"3881153","MEAN_MOTION_DDOT":"0.0000000000000"},{"TLE_LINE2":"2 49144  69.9981 109.6473 0002919 273.0841  86.9984 14.98331069 85867","COUNTRY_CODE":"US","MEAN_MOTION":"14.98331069","DECAY_DATE":null,"PERIAPSIS":"570.026","ECCENTRICITY":"0.00029190","REV_AT_EPOCH":"8586","CENTER_NAME":"EARTH","CLASSIFICATION_TYPE":"U","OBJECT_ID":"2021-082Q","BSTAR":"0.00001578900000","SEMIMAJOR_AXIS":"6950.190","ELEMENT_SET_NO":"999","LAUNCH_DATE":"2021-09-14","EPOCH":"2023-04-05T17:46:45.223680","OBJECT_NAME":"STARLINK-3100","REF_FRAME":"TEME","GP_ID":"229570235","RCS_SIZE":"LARGE","EPHEMERIS_TYPE":"0","RA_OF_ASC_NODE":"109.6473","OBJECT_TYPE":"PAYLOAD","FILE":"3881153","MEAN_MOTION_DDOT":"0.0000000000000","MEAN_ANOMALY":"86.9984","MEAN_ELEMENT_THEORY":"SGP4","NORAD_CAT_ID":"49144","ARG_OF_PERICENTER":"273.0841","PERIOD":"96.107","INCLINATION":"69.9981","SITE":"AFWTR","APOAPSIS":"574.083","MEAN_MOTION_DOT":"0.00000095","TIME_SYSTEM":"UTC","TLE_LINE1":"1 49144U 21082Q   23095.74080120  .00000095  00000-0  15789-4 0  9994"},{"CENTER_NAME":"EARTH","PERIAPSIS":"569.937","DECAY_DATE":null,"REV_AT_EPOCH":"8678","ECCENTRICITY":"0.00030500","TLE_LINE2":"2 49145  69.9994  70.6095 0003050 268.9379  91.1430 14.98330471 86787","COUNTRY_CODE":"US","MEAN_MOTION":"14.98330471","LAUNCH_DATE":"2021-09-14","EPOCH":"2023-04-05T08:33:18.462816","ELEMENT_SET_NO":"999","GP_ID":"229535343","REF_FRAME":"TEME","RCS_SIZE":"LARGE","OBJECT_NAME":"STARLINK-3119","SEMIMAJOR_AXIS":"6950.191","BSTAR":"0.00004895700000","CLASSIFICATION_TYPE":"U","OBJECT_ID":"2021-082R","SITE":"AFWTR","NORAD_CAT_ID":"49145","MEAN_ELEMENT_THEORY":"SGP4","MEAN_ANOMALY":"91.1430","PERIOD":"96.107","INCLINATION":"69.9994","ARG_OF_PERICENTER":"268.9379","MEAN_MOTION_DDOT":"0.0000000000000","FILE":"3880853","RA_OF_ASC_NODE":"70.6095","EPHEMERIS_TYPE":"0","OBJECT_TYPE":"PAYLOAD","TLE_LINE1":"1 49145U 21082R   23095.35646369  .00000491  00000-0  48957-4 0  9998","TIME_SYSTEM":"UTC","MEAN_MOTION_DOT":"0.00000491","APOAPSIS":"574.176"},{"TLE_LINE1":"1 49146U 21082S   23095.71136414  .00000057  00000-0  12560-4 0  9993","APOAPSIS":"574.178","MEAN_MOTION_DOT":"0.00000057","TIME_SYSTEM":"UTC","MEAN_ANOMALY":"89.6243","MEAN_ELEMENT_THEORY":"SGP4","NORAD_CAT_ID":"49146","ARG_OF_PERICENTER":"270.4568","PERIOD":"96.107","INCLINATION":"69.9984","SITE":"AFWTR","EPHEMERIS_TYPE":"0","RA_OF_ASC_NODE":"89.7349","OBJECT_TYPE":"PAYLOAD","MEAN_MOTION_DDOT":"0.0000000000000","FILE":"3881153","SEMIMAJOR_AXIS":"6950.199","EPOCH":"2023-04-05T17:04:21.861696","LAUNCH_DATE":"2021-09-14","ELEMENT_SET_NO":"999","OBJECT_NAME":"STARLINK-3116","RCS_SIZE":"LARGE","GP_ID":"229568750","REF_FRAME":"TEME","CLASSIFICATION_TYPE":"U","OBJECT_ID":"2021-082S","BSTAR":"0.00001256000000","DECAY_DATE":null,"PERIAPSIS":"569.950","ECCENTRICITY":"0.00030420","REV_AT_EPOCH":"8750","CENTER_NAME":"EARTH","TLE_LINE2":"2 49146  69.9984  89.7349 0003042 270.4568  89.6243 14.98328069 87504","COUNTRY_CODE":"US","MEAN_MOTION":"14.98328069"},{"TLE_LINE2":"2 49147  69.9999  70.5965 0002888 268.4429  91.6399 14.98328622 86793","MEAN_MOTION":"14.98328622","COUNTRY_CODE":"US","DECAY_DATE":null,"PERIAPSIS":"570.055","ECCENTRICITY":"0.00028880","REV_AT_EPOCH":"8679","CENTER_NAME":"EARTH","CLASSIFICATION_TYPE":"U","OBJECT_ID":"2021-082T","BSTAR":"0.00002617200000","SEMIMAJOR_AXIS":"6950.197","EPOCH":"2023-04-05T08:51:20.315232","LAUNCH_DATE":"2021-09-14","ELEMENT_SET_NO":"999","OBJECT_NAME":"STARLINK-3071","GP_ID":"229536842","RCS_SIZE":"LARGE","REF_FRAME":"TEME","EPHEMERIS_TYPE":"0","RA_OF_ASC_NODE":"70.5965","OBJECT_TYPE":"PAYLOAD","MEAN_MOTION_DDOT":"0.0000000000000","FILE":"3880853","MEAN_ANOMALY":"91.6399","NORAD_CAT_ID":"49147","MEAN_ELEMENT_THEORY":"SGP4","ARG_OF_PERICENTER":"268.4429","INCLINATION":"69.9999","PERIOD":"96.107","SITE":"AFWTR","APOAPSIS":"574.069","MEAN_MOTION_DOT":"0.00000219","TIME_SYSTEM":"UTC","TLE_LINE1":"1 49147U 21082T   23095.36898513  .00000219  00000-0  26172-4 0  9994"},{"CENTER_NAME":"EARTH","REV_AT_EPOCH":"8634","ECCENTRICITY":"0.00032870","PERIAPSIS":"569.774","DECAY_DATE":null,"MEAN_MOTION":"14.98329705","COUNTRY_CODE":"US","TLE_LINE2":"2 49148  69.9994  89.7372 0003287 269.1075  90.9707 14.98329705 86341","GP_ID":"229569735","REF_FRAME":"TEME","RCS_SIZE":"LARGE","OBJECT_NAME":"STARLINK-3048","LAUNCH_DATE":"2021-09-14","EPOCH":"2023-04-05T16:52:20.515008","ELEMENT_SET_NO":"999","SEMIMAJOR_AXIS":"6950.194","BSTAR":"0.00004203000000","OBJECT_ID":"2021-082U","CLASSIFICATION_TYPE":"U","SITE":"AFWTR","PERIOD":"96.107","INCLINATION":"69.9994","ARG_OF_PERICENTER":"269.1075","MEAN_ELEMENT_THEORY":"SGP4","NORAD_CAT_ID":"49148","MEAN_ANOMALY":"90.9707","MEAN_MOTION_DDOT":"0.0000000000000","FILE":"3881153","OBJECT_TYPE":"PAYLOAD","RA_OF_ASC_NODE":"89.7372","EPHEMERIS_TYPE":"0","TLE_LINE1":"1 49148U 21082U   23095.70301522  .00000408  00000-0  42030-4 0  9993","TIME_SYSTEM":"UTC","MEAN_MOTION_DOT":"0.00000408","APOAPSIS":"574.343"},{"TIME_SYSTEM":"UTC","APOAPSIS":"574.022","MEAN_MOTION_DOT":"0.00000309","TLE_LINE1":"1 49149U 21082V   23095.73662859  .00000309  00000-0  33651-4 0  9999","FILE":"3881153","MEAN_MOTION_DDOT":"0.0000000000000","OBJECT_TYPE":"PAYLOAD","EPHEMERIS_TYPE":"0","RA_OF_ASC_NODE":"109.6615","SITE":"AFWTR","ARG_OF_PERICENTER":"266.7266","INCLINATION":"69.9980","PERIOD":"96.107","MEAN_ANOMALY":"93.3569","NORAD_CAT_ID":"49149","MEAN_ELEMENT_THEORY":"SGP4","BSTAR":"0.00003365100000","OBJECT_ID":"2021-082V","CLASSIFICATION_TYPE":"U","OBJECT_NAME":"STARLINK-3053","GP_ID":"229568500","RCS_SIZE":"LARGE","REF_FRAME":"TEME","LAUNCH_DATE":"2021-09-14","EPOCH":"2023-04-05T17:40:44.710176","ELEMENT_SET_NO":"999","SEMIMAJOR_AXIS":"6950.193","MEAN_MOTION":"14.98329916","COUNTRY_CODE":"US","TLE_LINE2":"2 49149  69.9980 109.6615 0002826 266.7266  93.3569 14.98329916 87058","CENTER_NAME":"EARTH","ECCENTRICITY":"0.00028260","REV_AT_EPOCH":"8705","DECAY_DATE":null,"PERIAPSIS":"570.094"},{"TLE_LINE1":"1 49150U 21082W   23095.73245916 -.00000362  00000-0 -22558-4 0  9997","TIME_SYSTEM":"UTC","APOAPSIS":"574.129","MEAN_MOTION_DOT":"-0.00000362","SITE":"AFWTR","ARG_OF_PERICENTER":"274.4180","PERIOD":"96.107","INCLINATION":"69.9980","MEAN_ANOMALY":"85.6637","NORAD_CAT_ID":"49150","MEAN_ELEMENT_THEORY":"SGP4","FILE":"3881153","MEAN_MOTION_DDOT":"0.0000000000000","OBJECT_TYPE":"PAYLOAD","EPHEMERIS_TYPE":"0","RA_OF_ASC_NODE":"109.6757","OBJECT_NAME":"STARLINK-3104","REF_FRAME":"TEME","GP_ID":"229569251","RCS_SIZE":"LARGE","EPOCH":"2023-04-05T17:34:44.471424","LAUNCH_DATE":"2021-09-14","ELEMENT_SET_NO":"999","SEMIMAJOR_AXIS":"6950.187","BSTAR":"-0.00002255800000","OBJECT_ID":"2021-082W","CLASSIFICATION_TYPE":"U","CENTER_NAME":"EARTH","ECCENTRICITY":"0.00029880","REV_AT_EPOCH":"8705","DECAY_DATE":null,"PERIAPSIS":"569.975","COUNTRY_CODE":"US","MEAN_MOTION":"14.98331966","TLE_LINE2":"2 49150  69.9980 109.6757 0002988 274.4180  85.6637 14.98331966 87055"}];
